{
  "type": "FeatureCollection",
  "features": [
    {
      "type": "Feature",
      "properties": {
        "norad_id": 39617,
        "name": "ASTRA 5B (EGNOS/PRN 123)",
        "group": "gnss",
        "lat": 0.04859643857096123,
        "lon": 161.06876212548593,
        "alt_km": 35790.410240055586,
        "timestamp": "2025-12-13T03:42:11.516374+00:00",
        "meta_object_name": "ASTRA 5B (EGNOS/PRN 123)",
        "meta_object_id": "2014-011B",
        "meta_epoch": "2025-12-12T05:01:52.208256",
        "meta_mean_motion": 1.00272166,
        "meta_eccentricity": 0.00043876,
        "meta_inclination": 0.0602,
        "meta_ra_of_asc_node": 37.2223,
        "meta_arg_of_pericenter": 228.1315,
        "meta_mean_anomaly": 274.757,
        "meta_ephemeris_type": 0,
        "meta_classification_type": "U",
        "meta_norad_cat_id": 39617,
        "meta_element_set_no": 999,
        "meta_rev_at_epoch": 4279,
        "meta_bstar": 0,
        "meta_mean_motion_dot": 1.47e-06,
        "meta_mean_motion_ddot": 0,
        "tle_line1": "1 39617U 14011B   25346.20963204  .00000147  00000+0  00000+0 0  9999",
        "tle_line2": "2 39617   0.0602  37.2223 0004387 228.1315 274.7570  1.00272166 42798"
      },
      "geometry": {
        "type": "Point",
        "coordinates": [
          161.06876212548593,
          0.04859643857096123
        ]
      }
    },
    {
      "type": "Feature",
      "properties": {
        "norad_id": 39620,
        "name": "COSMOS 2492 (754)",
        "group": "gnss",
        "lat": 65.10706953722443,
        "lon": 40.9043665168256,
        "alt_km": 19148.431125842908,
        "timestamp": "2025-12-13T03:42:11.516387+00:00",
        "meta_object_name": "COSMOS 2492 (754)",
        "meta_object_id": "2014-012A",
        "meta_epoch": "2025-12-11T15:13:27.039936",
        "meta_mean_motion": 2.13102949,
        "meta_eccentricity": 0.00142133,
        "meta_inclination": 65.4084,
        "meta_ra_of_asc_node": 320.3085,
        "meta_arg_of_pericenter": 311.3676,
        "meta_mean_anomaly": 48.5095,
        "meta_ephemeris_type": 0,
        "meta_classification_type": "U",
        "meta_norad_cat_id": 39620,
        "meta_element_set_no": 999,
        "meta_rev_at_epoch": 9124,
        "meta_bstar": 0,
        "meta_mean_motion_dot": -5.3e-07,
        "meta_mean_motion_ddot": 0,
        "tle_line1": "1 39620U 14012A   25345.63434074 -.00000053  00000+0  00000+0 0  9995",
        "tle_line2": "2 39620  65.4084 320.3085 0014213 311.3676  48.5095  2.13102949 91246"
      },
      "geometry": {
        "type": "Point",
        "coordinates": [
          40.9043665168256,
          65.10706953722443
        ]
      }
    },
    {
      "type": "Feature",
      "properties": {
        "norad_id": 39635,
        "name": "IRNSS-1B",
        "group": "gnss",
        "lat": -21.90499979332882,
        "lon": -163.2761951022631,
        "alt_km": 35831.123969375985,
        "timestamp": "2025-12-13T03:42:11.516398+00:00",
        "meta_object_name": "IRNSS-1B",
        "meta_object_id": "2014-017A",
        "meta_epoch": "2025-12-07T19:02:08.350080",
        "meta_mean_motion": 1.00276938,
        "meta_eccentricity": 0.00176548,
        "meta_inclination": 28.8332,
        "meta_ra_of_asc_node": 243.6763,
        "meta_arg_of_pericenter": 183.0277,
        "meta_mean_anomaly": 350.7455,
        "meta_ephemeris_type": 0,
        "meta_classification_type": "U",
        "meta_norad_cat_id": 39635,
        "meta_element_set_no": 999,
        "meta_rev_at_epoch": 4287,
        "meta_bstar": 0,
        "meta_mean_motion_dot": 1.18e-06,
        "meta_mean_motion_ddot": 0,
        "tle_line1": "1 39635U 14017A   25341.79315220  .00000118  00000+0  00000+0 0  9991",
        "tle_line2": "2 39635  28.8332 243.6763 0017654 183.0277 350.7455  1.00276938 42872"
      },
      "geometry": {
        "type": "Point",
        "coordinates": [
          -163.2761951022631,
          -21.90499979332882
        ]
      }
    },
    {
      "type": "Feature",
      "properties": {
        "norad_id": 39727,
        "name": "LUCH 5V (SDCM/PRN 141)",
        "group": "gnss",
        "lat": 1.5166018805357513,
        "lon": -127.60109470444156,
        "alt_km": 35772.82134918347,
        "timestamp": "2025-12-13T03:42:11.516411+00:00",
        "meta_object_name": "LUCH 5V (SDCM/PRN 141)",
        "meta_object_id": "2014-023A",
        "meta_epoch": "2025-12-12T07:04:55.424352",
        "meta_mean_motion": 1.00269136,
        "meta_eccentricity": 0.00046042,
        "meta_inclination": 4.6686,
        "meta_ra_of_asc_node": 71.5422,
        "meta_arg_of_pericenter": 205.4072,
        "meta_mean_anomaly": 5.273,
        "meta_ephemeris_type": 0,
        "meta_classification_type": "U",
        "meta_norad_cat_id": 39727,
        "meta_element_set_no": 999,
        "meta_rev_at_epoch": 4248,
        "meta_bstar": 0,
        "meta_mean_motion_dot": -2.59e-06,
        "meta_mean_motion_ddot": 0,
        "tle_line1": "1 39727U 14023A   25346.29508593 -.00000259  00000+0  00000+0 0  9994",
        "tle_line2": "2 39727   4.6686  71.5422 0004604 205.4072   5.2730  1.00269136 42488"
      },
      "geometry": {
        "type": "Point",
        "coordinates": [
          -127.60109470444156,
          1.5166018805357513
        ]
      }
    },
    {
      "type": "Feature",
      "properties": {
        "norad_id": 39741,
        "name": "GPS BIIF-6  (PRN 06)",
        "group": "gnss",
        "lat": 48.168618010187686,
        "lon": 111.2331485829038,
        "alt_km": 20273.216585573195,
        "timestamp": "2025-12-13T03:42:11.516423+00:00",
        "meta_object_name": "GPS BIIF-6  (PRN 06)",
        "meta_object_id": "2014-026A",
        "meta_epoch": "2025-12-11T11:55:13.475136",
        "meta_mean_motion": 2.00561432,
        "meta_eccentricity": 0.0039154,
        "meta_inclination": 56.584,
        "meta_ra_of_asc_node": 338.8247,
        "meta_arg_of_pericenter": 318.6056,
        "meta_mean_anomaly": 41.1101,
        "meta_ephemeris_type": 0,
        "meta_classification_type": "U",
        "meta_norad_cat_id": 39741,
        "meta_element_set_no": 999,
        "meta_rev_at_epoch": 8477,
        "meta_bstar": 0,
        "meta_mean_motion_dot": -8.5e-07,
        "meta_mean_motion_ddot": 0,
        "tle_line1": "1 39741U 14026A   25345.49668374 -.00000085  00000+0  00000+0 0  9995",
        "tle_line2": "2 39741  56.5840 338.8247 0039154 318.6056  41.1101  2.00561432 84777"
      },
      "geometry": {
        "type": "Point",
        "coordinates": [
          111.2331485829038,
          48.168618010187686
        ]
      }
    },
    {
      "type": "Feature",
      "properties": {
        "norad_id": 40001,
        "name": "COSMOS 2500 (755)",
        "group": "gnss",
        "lat": -40.820962286725,
        "lon": -63.363362172850145,
        "alt_km": 19136.45346967801,
        "timestamp": "2025-12-13T03:42:11.516436+00:00",
        "meta_object_name": "COSMOS 2500 (755)",
        "meta_object_id": "2014-032A",
        "meta_epoch": "2025-12-09T11:02:48.490944",
        "meta_mean_motion": 2.13105796,
        "meta_eccentricity": 0.000831,
        "meta_inclination": 65.3451,
        "meta_ra_of_asc_node": 320.1442,
        "meta_arg_of_pericenter": 219.1348,
        "meta_mean_anomaly": 140.802,
        "meta_ephemeris_type": 0,
        "meta_classification_type": "U",
        "meta_norad_cat_id": 40001,
        "meta_element_set_no": 999,
        "meta_rev_at_epoch": 8941,
        "meta_bstar": 0,
        "meta_mean_motion_dot": -4.9e-07,
        "meta_mean_motion_ddot": 0,
        "tle_line1": "1 40001U 14032A   25343.46028346 -.00000049  00000+0  00000+0 0  9997",
        "tle_line2": "2 40001  65.3451 320.1442 0008310 219.1348 140.8020  2.13105796 89418"
      },
      "geometry": {
        "type": "Point",
        "coordinates": [
          -63.363362172850145,
          -40.820962286725
        ]
      }
    },
    {
      "type": "Feature",
      "properties": {
        "norad_id": 40105,
        "name": "GPS BIIF-7  (PRN 09)",
        "group": "gnss",
        "lat": 41.4392838948181,
        "lon": 133.65853811466127,
        "alt_km": 20141.1678386408,
        "timestamp": "2025-12-13T03:42:11.516448+00:00",
        "meta_object_name": "GPS BIIF-7  (PRN 09)",
        "meta_object_id": "2014-045A",
        "meta_epoch": "2025-12-11T14:01:23.585664",
        "meta_mean_motion": 2.00572456,
        "meta_eccentricity": 0.00327154,
        "meta_inclination": 55.2284,
        "meta_ra_of_asc_node": 95.945,
        "meta_arg_of_pericenter": 119.8377,
        "meta_mean_anomaly": 240.477,
        "meta_ephemeris_type": 0,
        "meta_classification_type": "U",
        "meta_norad_cat_id": 40105,
        "meta_element_set_no": 999,
        "meta_rev_at_epoch": 8231,
        "meta_bstar": 0,
        "meta_mean_motion_dot": -5e-08,
        "meta_mean_motion_ddot": 0,
        "tle_line1": "1 40105U 14045A   25345.58430076 -.00000005  00000+0  00000+0 0  9990",
        "tle_line2": "2 40105  55.2284  95.9450 0032715 119.8377 240.4770  2.00572456 82313"
      },
      "geometry": {
        "type": "Point",
        "coordinates": [
          133.65853811466127,
          41.4392838948181
        ]
      }
    }
  ]
}